{
  "type": "FeatureCollection",
  "features": [
    {
      "type": "Feature",
      "properties": {
        "norad_id": 31307,
        "name": "GALAXY 17 (G-17)",
        "group": "intelsat",
        "lat": -2.167515131857456,
        "lon": -39.68319859980866,
        "alt_km": 35776.3067210858,
        "timestamp": "2025-12-25T20:42:38.354745+00:00",
        "meta_object_name": "GALAXY 17 (G-17)",
        "meta_object_id": "2007-016B",
        "meta_epoch": "2025-12-25T03:12:43.293888",
        "meta_mean_motion": 1.00272001,
        "meta_eccentricity": 0.00055995,
        "meta_inclination": 2.5292,
        "meta_ra_of_asc_node": 82.144,
        "meta_arg_of_pericenter": 173.1057,
        "meta_mean_anomaly": 161.8394,
        "meta_ephemeris_type": 0,
        "meta_classification_type": "U",
        "meta_norad_cat_id": 31307,
        "meta_element_set_no": 999,
        "meta_rev_at_epoch": 6805,
        "meta_bstar": 0,
        "meta_mean_motion_dot": -1.86e-06,
        "meta_mean_motion_ddot": 0,
        "tle_line1": "1 31307U 07016B   25359.13383442 -.00000186  00000+0  00000+0 0  9994",
        "tle_line2": "2 31307   2.5292  82.1440 0005599 173.1057 161.8394  1.00272001 68051"
      },
      "geometry": {
        "type": "Point",
        "coordinates": [
          -39.68319859980866,
          -2.167515131857456
        ]
      }
    },
    {
      "type": "Feature",
      "properties": {
        "norad_id": 31862,
        "name": "DIRECTV 10",
        "group": "intelsat",
        "lat": -0.0006467526533777149,
        "lon": -57.508492328311725,
        "alt_km": 35785.122879781615,
        "timestamp": "2025-12-25T20:42:38.354757+00:00",
        "meta_object_name": "DIRECTV 10",
        "meta_object_id": "2007-032A",
        "meta_epoch": "2025-12-24T14:19:19.046208",
        "meta_mean_motion": 1.00273609,
        "meta_eccentricity": 2.725e-05,
        "meta_inclination": 0.0207,
        "meta_ra_of_asc_node": 182.1136,
        "meta_arg_of_pericenter": 53.7746,
        "meta_mean_anomaly": 329.5202,
        "meta_ephemeris_type": 0,
        "meta_classification_type": "U",
        "meta_norad_cat_id": 31862,
        "meta_element_set_no": 999,
        "meta_rev_at_epoch": 4384,
        "meta_bstar": 0,
        "meta_mean_motion_dot": -8.2e-07,
        "meta_mean_motion_ddot": 0,
        "tle_line1": "1 31862U 07032A   25358.59674822 -.00000082  00000+0  00000+0 0  9997",
        "tle_line2": "2 31862   0.0207 182.1136 0000272  53.7746 329.5202  1.00273609 43846"
      },
      "geometry": {
        "type": "Point",
        "coordinates": [
          -57.508492328311725,
          -0.0006467526533777149
        ]
      }
    },
    {
      "type": "Feature",
      "properties": {
        "norad_id": 32253,
        "name": "INTELSAT 11 (IS-11)",
        "group": "intelsat",
        "lat": 2.2928535749666827,
        "lon": -146.72584063381797,
        "alt_km": 36102.32462091813,
        "timestamp": "2025-12-25T20:42:38.354774+00:00",
        "meta_object_name": "INTELSAT 11 (IS-11)",
        "meta_object_id": "2007-044B",
        "meta_epoch": "2025-12-24T20:46:04.510272",
        "meta_mean_motion": 0.99053047,
        "meta_eccentricity": 0.0008602,
        "meta_inclination": 3.1098,
        "meta_ra_of_asc_node": 80.8414,
        "meta_arg_of_pericenter": 171.0045,
        "meta_mean_anomaly": 325.7039,
        "meta_ephemeris_type": 0,
        "meta_classification_type": "U",
        "meta_norad_cat_id": 32253,
        "meta_element_set_no": 999,
        "meta_rev_at_epoch": 6672,
        "meta_bstar": 0,
        "meta_mean_motion_dot": -1.82e-06,
        "meta_mean_motion_ddot": 0,
        "tle_line1": "1 32253U 07044B   25358.86532998 -.00000182  00000+0  00000+0 0  9993",
        "tle_line2": "2 32253   3.1098  80.8414 0008602 171.0045 325.7039  0.99053047 66724"
      },
      "geometry": {
        "type": "Point",
        "coordinates": [
          -146.72584063381797,
          2.2928535749666827
        ]
      }
    },
    {
      "type": "Feature",
      "properties": {
        "norad_id": 32388,
        "name": "HORIZONS-2",
        "group": "intelsat",
        "lat": -2.0202985001399627,
        "lon": -28.50277518664133,
        "alt_km": 35774.575223851214,
        "timestamp": "2025-12-25T20:42:38.354787+00:00",
        "meta_object_name": "HORIZONS-2",
        "meta_object_id": "2007-063B",
        "meta_epoch": "2025-12-25T04:30:58.751136",
        "meta_mean_motion": 1.00269574,
        "meta_eccentricity": 0.00047751,
        "meta_inclination": 2.152,
        "meta_ra_of_asc_node": 82.826,
        "meta_arg_of_pericenter": 196.7132,
        "meta_mean_anomaly": 168.3583,
        "meta_ephemeris_type": 0,
        "meta_classification_type": "U",
        "meta_norad_cat_id": 32388,
        "meta_element_set_no": 999,
        "meta_rev_at_epoch": 6607,
        "meta_bstar": 0,
        "meta_mean_motion_dot": -2.33e-06,
        "meta_mean_motion_ddot": 0,
        "tle_line1": "1 32388U 07063B   25359.18817999 -.00000233  00000+0  00000+0 0  9993",
        "tle_line2": "2 32388   2.1520  82.8260 0004775 196.7132 168.3583  1.00269574 66071"
      },
      "geometry": {
        "type": "Point",
        "coordinates": [
          -28.50277518664133,
          -2.0202985001399627
        ]
      }
    },
    {
      "type": "Feature",
      "properties": {
        "norad_id": 32729,
        "name": "DIRECTV 11",
        "group": "intelsat",
        "lat": 0.026644846168399152,
        "lon": -53.95591365334106,
        "alt_km": 35789.637908385965,
        "timestamp": "2025-12-25T20:42:38.354798+00:00",
        "meta_object_name": "DIRECTV 11",
        "meta_object_id": "2008-013A",
        "meta_epoch": "2025-12-24T22:53:59.758368",
        "meta_mean_motion": 1.00260442,
        "meta_eccentricity": 0.0001047,
        "meta_inclination": 0.0475,
        "meta_ra_of_asc_node": 199.7105,
        "meta_arg_of_pericenter": 11.4593,
        "meta_mean_anomaly": 126.8496,
        "meta_ephemeris_type": 0,
        "meta_classification_type": "U",
        "meta_norad_cat_id": 32729,
        "meta_element_set_no": 999,
        "meta_rev_at_epoch": 4384,
        "meta_bstar": 0,
        "meta_mean_motion_dot": -1.03e-06,
        "meta_mean_motion_ddot": 0,
        "tle_line1": "1 32729U 08013A   25358.95416387 -.00000103  00000+0  00000+0 0  9994",
        "tle_line2": "2 32729   0.0475 199.7105 0001047  11.4593 126.8496  1.00260442 43842"
      },
      "geometry": {
        "type": "Point",
        "coordinates": [
          -53.95591365334106,
          0.026644846168399152
        ]
      }
    },
    {
      "type": "Feature",
      "properties": {
        "norad_id": 32951,
        "name": "GALAXY 18 (G-18)",
        "group": "intelsat",
        "lat": -0.026185536171573744,
        "lon": -77.73397960871195,
        "alt_km": 35773.09867387746,
        "timestamp": "2025-12-25T20:42:38.354810+00:00",
        "meta_object_name": "GALAXY 18 (G-18)",
        "meta_object_id": "2008-024A",
        "meta_epoch": "2025-12-25T06:10:38.820000",
        "meta_mean_motion": 1.00272095,
        "meta_eccentricity": 0.00030417,
        "meta_inclination": 0.0175,
        "meta_ra_of_asc_node": 323.8914,
        "meta_arg_of_pericenter": 316.0231,
        "meta_mean_anomaly": 143.7611,
        "meta_ephemeris_type": 0,
        "meta_classification_type": "U",
        "meta_norad_cat_id": 32951,
        "meta_element_set_no": 999,
        "meta_rev_at_epoch": 4410,
        "meta_bstar": 0,
        "meta_mean_motion_dot": 4.6e-07,
        "meta_mean_motion_ddot": 0,
        "tle_line1": "1 32951U 08024A   25359.25739375  .00000046  00000+0  00000+0 0  9997",
        "tle_line2": "2 32951   0.0175 323.8914 0003041 316.0231 143.7611  1.00272095 44107"
      },
      "geometry": {
        "type": "Point",
        "coordinates": [
          -77.73397960871195,
          -0.026185536171573744
        ]
      }
    },
    {
      "type": "Feature",
      "properties": {
        "norad_id": 33153,
        "name": "INTELSAT 25 (IS-25)",
        "group": "intelsat",
        "lat": -2.105745749978464,
        "lon": 13.847866549256455,
        "alt_km": 35790.674913729265,
        "timestamp": "2025-12-25T20:42:38.354821+00:00",
        "meta_object_name": "INTELSAT 25 (IS-25)",
        "meta_object_id": "2008-034A",
        "meta_epoch": "2025-12-24T23:13:20.404128",
        "meta_mean_motion": 1.00272025,
        "meta_eccentricity": 0.00049045,
        "meta_inclination": 2.2573,
        "meta_ra_of_asc_node": 82.5174,
        "meta_arg_of_pericenter": 189.2444,
        "meta_mean_anomaly": 138.8126,
        "meta_ephemeris_type": 0,
        "meta_classification_type": "U",
        "meta_norad_cat_id": 33153,
        "meta_element_set_no": 999,
        "meta_rev_at_epoch": 6394,
        "meta_bstar": 0,
        "meta_mean_motion_dot": -2.03e-06,
        "meta_mean_motion_ddot": 0,
        "tle_line1": "1 33153U 08034A   25358.96759727 -.00000203  00000+0  00000+0 0  9999",
        "tle_line2": "2 33153   2.2573  82.5174 0004904 189.2444 138.8126  1.00272025 63942"
      },
      "geometry": {
        "type": "Point",
        "coordinates": [
          13.847866549256455,
          -2.105745749978464
        ]
      }
    }
  ]
}